{
"type": "FeatureCollection",
"name": "map_colleges",
"crs": { "type": "name", "properties": { "name": "urn:ogc:def:crs:OGC:1.3:CRS84" } },
"features": [
{ "type": "Feature", "properties": { "xid": 1, "schoolname": "Weber State University", "schooltype": "Public College or University", "campustype": "Primary", "address": "3848 HARRISON BLVD", "city": "OGDEN", "zip": "84408", "phonenumber": "8016266000", "website": "www.weber.edu", "county_fips": "057" }, "geometry": { "type": "Point", "coordinates": [ -111.945634690107127, 41.192818797516274 ] } },
{ "type": "Feature", "properties": { "xid": 4, "schoolname": "Salt Lake Community College - Taylorsville Redwood Campus", "schooltype": "Public College or University", "campustype": "Branch", "address": "4600 S REDWOOD RD", "city": "SALT LAKE CITY", "zip": "84130", "phonenumber": "3859574111", "website": "www.slcc.edu", "county_fips": "035" }, "geometry": { "type": "Point", "coordinates": [ -111.94020665262245, 40.671403541102052 ] } },
{ "type": "Feature", "properties": { "xid": 5, "schoolname": "Utah Valley University", "schooltype": "Public College or University", "campustype": "Primary", "address": "800 W UNIVERSITY PKWY", "city": "OREM", "zip": "84058", "phonenumber": "8012228000", "website": null, "county_fips": "049" }, "geometry": { "type": "Point", "coordinates": [ -111.712921957666268, 40.27729673455665 ] } },
{ "type": "Feature", "properties": { "xid": 6, "schoolname": "Brigham Young University", "schooltype": "Private College or University", "campustype": "Primary", "address": "155 E BULLDOG BLVD", "city": "PROVO", "zip": "84602", "phonenumber": "", "website": "www.byu.edu", "county_fips": "049" }, "geometry": { "type": "Point", "coordinates": [ -111.651778280967548, 40.247037147241109 ] } },
{ "type": "Feature", "properties": { "xid": 7, "schoolname": "University Of Utah", "schooltype": "Public College or University", "campustype": "Primary", "address": "201 S PRESIDENTS CIR", "city": "SALT LAKE CITY", "zip": "84112", "phonenumber": "8015817200", "website": "www.utah.edu", "county_fips": "035" }, "geometry": { "type": "Point", "coordinates": [ -111.848792291003008, 40.764963431866612 ] } },
{ "type": "Feature", "properties": { "xid": 14, "schoolname": "Utah State University - Brigham City Campus", "schooltype": "Public College or University", "campustype": "Branch", "address": "265 W 1100 S", "city": "BRIGHAM CITY", "zip": "84302", "phonenumber": "4359191200", "website": null, "county_fips": "003" }, "geometry": { "type": "Point", "coordinates": [ -112.019928250462669, 41.485585543132856 ] } },
{ "type": "Feature", "properties": { "xid": 28, "schoolname": "Utah State University - Orem Campus", "schooltype": "Public College or University", "campustype": "Branch", "address": "1875 S STATE ST", "city": "OREM", "zip": "84097", "phonenumber": "8012269045", "website": null, "county_fips": "049" }, "geometry": { "type": "Point", "coordinates": [ -111.678424142317155, 40.263592385626161 ] } },
{ "type": "Feature", "properties": { "xid": 30, "schoolname": "Utah State University - Kaysville Campus", "schooltype": "Public College or University", "campustype": "Branch", "address": "80 E SEGO LILY DR", "city": "KAYSVILLE", "zip": "84037", "phonenumber": "8014995120", "website": null, "county_fips": "011" }, "geometry": { "type": "Point", "coordinates": [ -111.938559326260105, 41.022620269059971 ] } },
{ "type": "Feature", "properties": { "xid": 31, "schoolname": "Utah State University - Tremonton Campus", "schooltype": "Public College or University", "campustype": "Branch", "address": "420 W 600 N", "city": "TREMONTON", "zip": "84337", "phonenumber": "4359191291", "website": null, "county_fips": "003" }, "geometry": { "type": "Point", "coordinates": [ -112.172545827809415, 41.719635479648637 ] } },
{ "type": "Feature", "properties": { "xid": 32, "schoolname": "Utah State University - Salt Lake City Campus", "schooltype": "Public College or University", "campustype": "Branch", "address": "920 W LEVOY DR", "city": "TAYLORSVILLE", "zip": "84123", "phonenumber": "3856465570", "website": null, "county_fips": "035" }, "geometry": { "type": "Point", "coordinates": [ -111.917279705872588, 40.674933583802847 ] } },
{ "type": "Feature", "properties": { "xid": 37, "schoolname": "Weber State University - Davis", "schooltype": "Public College or University", "campustype": "Branch", "address": "2750 UNIVERSITY PARK BLVD", "city": "LAYTON", "zip": "84041", "phonenumber": "8013953456", "website": null, "county_fips": "011" }, "geometry": { "type": "Point", "coordinates": [ -111.98347960841501, 41.099307984486074 ] } },
{ "type": "Feature", "properties": { "xid": 39, "schoolname": "Weber State University - West Center", "schooltype": "Public College or University", "campustype": "Branch", "address": "5627 S 3500 W", "city": "ROY", "zip": "84067", "phonenumber": "8016268900", "website": null, "county_fips": "057" }, "geometry": { "type": "Point", "coordinates": [ -112.065282221489852, 41.160802982430006 ] } },
{ "type": "Feature", "properties": { "xid": 40, "schoolname": "Weber State University Center For Continuing Education", "schooltype": "Public College or University", "campustype": "Branch", "address": "775 S UNIVERSITY PARK BLVD", "city": "CLEARFIELD", "zip": "84015", "phonenumber": "8013953409", "website": null, "county_fips": "011" }, "geometry": { "type": "Point", "coordinates": [ -111.987927732527496, 41.103042344268623 ] } },
{ "type": "Feature", "properties": { "xid": 41, "schoolname": "Weber State - Downtown", "schooltype": "Public College or University", "campustype": "Branch", "address": "2314 WASHINGTON BLVD", "city": "OGDEN", "zip": "84401", "phonenumber": "8016268820", "website": null, "county_fips": "057" }, "geometry": { "type": "Point", "coordinates": [ -111.970077556926114, 41.224414612597542 ] } },
{ "type": "Feature", "properties": { "xid": 42, "schoolname": "Weber State - Farmington Station", "schooltype": "Public College or University", "campustype": "Branch", "address": "240 N EAST PROMONTORY", "city": "FARMINGTON", "zip": "84025", "phonenumber": "8013953320", "website": null, "county_fips": "011" }, "geometry": { "type": "Point", "coordinates": [ -111.906525830564561, 40.984603536993632 ] } },
{ "type": "Feature", "properties": { "xid": 43, "schoolname": "Weber State University - Community Education Center", "schooltype": "Public College or University", "campustype": "Branch", "address": "2605 MONROE BLVD", "city": "OGDEN", "zip": "84403", "phonenumber": "8016267911", "website": null, "county_fips": "057" }, "geometry": { "type": "Point", "coordinates": [ -111.959956462367657, 41.218193799488965 ] } },
{ "type": "Feature", "properties": { "xid": 45, "schoolname": "LDS Business College", "schooltype": "Private College or University", "campustype": "Primary", "address": "95 N 300 W", "city": "SALT LAKE CITY", "zip": "84101", "phonenumber": "", "website": null, "county_fips": "035" }, "geometry": { "type": "Point", "coordinates": [ -111.900154950768368, 40.7711290271805 ] } },
{ "type": "Feature", "properties": { "xid": 46, "schoolname": "Salt Lake Community College - South City Campus", "schooltype": "Public College or University", "campustype": "Branch", "address": "1575 S STATE ST", "city": "SALT LAKE CITY", "zip": "84115", "phonenumber": "", "website": "www.slcc.edu", "county_fips": "035" }, "geometry": { "type": "Point", "coordinates": [ -111.887090665870829, 40.735303271254381 ] } },
{ "type": "Feature", "properties": { "xid": 47, "schoolname": "Stevens Henager College", "schooltype": "Other Institution", "campustype": "Primary", "address": "1181 S GLENDALE DR", "city": "SALT LAKE CITY", "zip": "84123", "phonenumber": "", "website": null, "county_fips": "035" }, "geometry": { "type": "Point", "coordinates": [ -111.902053271798593, 40.659590572854036 ] } },
{ "type": "Feature", "properties": { "xid": 48, "schoolname": "Western Governors University", "schooltype": "Private College or University", "campustype": "Branch", "address": "4001 S 700 E # 700", "city": "SALT LAKE CITY", "zip": "84107", "phonenumber": "8774357948", "website": null, "county_fips": "035" }, "geometry": { "type": "Point", "coordinates": [ -111.869844414236681, 40.684824760328908 ] } },
{ "type": "Feature", "properties": { "xid": 49, "schoolname": "Westminster College", "schooltype": "Private College or University", "campustype": "Primary", "address": "1840 S 1300 E", "city": "SALT LAKE CITY", "zip": "84105", "phonenumber": "8018322200", "website": "www.westminstercollege.edu", "county_fips": "035" }, "geometry": { "type": "Point", "coordinates": [ -111.854713461814995, 40.731958770569413 ] } },
{ "type": "Feature", "properties": { "xid": 50, "schoolname": "Salt Lake Community College - Miller Campus", "schooltype": "Public College or University", "campustype": "Branch", "address": "9750 S 300 W", "city": "SANDY", "zip": "84070", "phonenumber": "3859574111", "website": "www.slcc.edu", "county_fips": "035" }, "geometry": { "type": "Point", "coordinates": [ -111.901787895271042, 40.574521285562547 ] } },
{ "type": "Feature", "properties": { "xid": 51, "schoolname": "Salt Lake Community College - Jordan Campus", "schooltype": "Public College or University", "campustype": "Branch", "address": "3491 W WIGHTS FORT RD", "city": "WEST JORDAN", "zip": "84088", "phonenumber": "", "website": "www.slcc.edu", "county_fips": "035" }, "geometry": { "type": "Point", "coordinates": [ -111.974298201031232, 40.584620910420576 ] } },
{ "type": "Feature", "properties": { "xid": 52, "schoolname": "Salt Lake Community College - West Valley Center", "schooltype": "Public College or University", "campustype": "Branch", "address": "3460 S 5600 W", "city": "WEST VALLEY CITY", "zip": "84128", "phonenumber": "", "website": "www.slcc.edu", "county_fips": "035" }, "geometry": { "type": "Point", "coordinates": [ -112.0265281509364, 40.697285128536954 ] } },
{ "type": "Feature", "properties": { "xid": 54, "schoolname": "Bridgerland Technical College - Brigham City Branch Campus", "schooltype": "Technical College", "campustype": "Branch", "address": "325 W 1100 S", "city": "BRIGHAM CITY", "zip": "84302", "phonenumber": "", "website": null, "county_fips": "003" }, "geometry": { "type": "Point", "coordinates": [ -112.020800232032357, 41.485530804291933 ] } },
{ "type": "Feature", "properties": { "xid": 56, "schoolname": "Davis Technical College", "schooltype": "Technical College", "campustype": "Primary", "address": "550 E 300 S", "city": "KAYSVILLE", "zip": "84037", "phonenumber": "8015932500", "website": "www.davistech.edu", "county_fips": "011" }, "geometry": { "type": "Point", "coordinates": [ -111.925114535696139, 41.029101170010847 ] } },
{ "type": "Feature", "properties": { "xid": 57, "schoolname": "Davis Technical College - Utah Department of Corrections Instructional Service Center", "schooltype": "Technical College", "campustype": "Branch", "address": "14425 BITTERBRUSH LANE", "city": "DRAPER", "zip": "84020", "phonenumber": "", "website": null, "county_fips": "035" }, "geometry": { "type": "Point", "coordinates": [ -111.901372204462845, 40.49060274241716 ] } },
{ "type": "Feature", "properties": { "xid": 58, "schoolname": "Davis Technical College - Freeport Extension Campus", "schooltype": "Technical College", "campustype": "Branch", "address": "FREEPORT CENTER, BUILDING Y-16", "city": "CLEARFIELD", "zip": "84016", "phonenumber": "", "website": null, "county_fips": "011" }, "geometry": { "type": "Point", "coordinates": [ -112.014999745382127, 41.090095740577425 ] } },
{ "type": "Feature", "properties": { "xid": 59, "schoolname": "Davis Technical College - Freeport West Extension Campus", "schooltype": "Technical College", "campustype": "Branch", "address": "FREEPORT CENTER, BUILDING D-5", "city": "CLEARFIELD", "zip": "84016", "phonenumber": "", "website": null, "county_fips": "011" }, "geometry": { "type": "Point", "coordinates": [ -112.032620436463787, 41.093168769919139 ] } },
{ "type": "Feature", "properties": { "xid": 60, "schoolname": "Davis Technical College - Clearfield Job Corps Instructional Service Center", "schooltype": "Technical College", "campustype": "Branch", "address": "20 W 1700 S", "city": "CLEARFIELD", "zip": "84016", "phonenumber": "", "website": null, "county_fips": "011" }, "geometry": { "type": "Point", "coordinates": [ -112.025985979081796, 41.089780356378803 ] } },
{ "type": "Feature", "properties": { "xid": 62, "schoolname": "Mountainland Technical College", "schooltype": "Technical College", "campustype": "Primary", "address": "2301 W ASHTON BLVD", "city": "LEHI", "zip": "84043", "phonenumber": "8017536282", "website": "www.mtec.edu", "county_fips": "049" }, "geometry": { "type": "Point", "coordinates": [ -111.886089264151707, 40.419856161916805 ] } },
{ "type": "Feature", "properties": { "xid": 63, "schoolname": "Mountainland Technical College - Orem Branch Campus", "schooltype": "Technical College", "campustype": "Branch", "address": "1410 W 1250 S", "city": "OREM", "zip": "84058", "phonenumber": "", "website": null, "county_fips": "049" }, "geometry": { "type": "Point", "coordinates": [ -111.729113878564121, 40.274824292641959 ] } },
{ "type": "Feature", "properties": { "xid": 64, "schoolname": "Mountainland Technical College - Spanish Fork Extension Campus", "schooltype": "Technical College", "campustype": "Branch", "address": "693 W 1210 S", "city": "SPANISH FORK", "zip": "84660", "phonenumber": "", "website": null, "county_fips": "049" }, "geometry": { "type": "Point", "coordinates": [ -111.666259176774119, 40.093526223590409 ] } },
{ "type": "Feature", "properties": { "xid": 65, "schoolname": "Mountainland Technical College - Provo Extension Campus", "schooltype": "Technical College", "campustype": "Branch", "address": "125 N 100 W", "city": "PROVO", "zip": "84601", "phonenumber": "", "website": null, "county_fips": "049" }, "geometry": { "type": "Point", "coordinates": [ -111.660848118913123, 40.235468848356483 ] } },
{ "type": "Feature", "properties": { "xid": 66, "schoolname": "Mountainland Technical College - Salt Lake Instructional Service Center", "schooltype": "Technical College", "campustype": "Branch", "address": "1260 S 3600 W", "city": "SALT LAKE CITY", "zip": "84104", "phonenumber": "", "website": null, "county_fips": "035" }, "geometry": { "type": "Point", "coordinates": [ -111.97780046766367, 40.742635686326736 ] } },
{ "type": "Feature", "properties": { "xid": 69, "schoolname": "Ogden-Weber Technical College", "schooltype": "Technical College", "campustype": "Primary", "address": "200 N WASHINGTON BLVD", "city": "OGDEN", "zip": "84404", "phonenumber": "8016278300", "website": "www.otech.edu", "county_fips": "057" }, "geometry": { "type": "Point", "coordinates": [ -111.96589858755361, 41.26405969202164 ] } },
{ "type": "Feature", "properties": { "xid": 70, "schoolname": "Ogden-Weber Technical College - Business District Ogden (BDO) Extension Campus", "schooltype": "Technical College", "campustype": "Branch", "address": "918 W 2ND ST, BLDG 10", "city": "OGDEN", "zip": "84404", "phonenumber": "", "website": null, "county_fips": "057" }, "geometry": { "type": "Point", "coordinates": [ -111.999947877442537, 41.259093243993881 ] } },
{ "type": "Feature", "properties": { "xid": 78, "schoolname": "Salt Lake Community College - Westpointe Center", "schooltype": "Public College or University", "campustype": "Branch", "address": "1060 N FLYER WAY", "city": "SALT LAKE CITY", "zip": "84116", "phonenumber": "", "website": "www.slcc.edu", "county_fips": "035" }, "geometry": { "type": "Point", "coordinates": [ -111.951181536885969, 40.792326872405795 ] } },
{ "type": "Feature", "properties": { "xid": 79, "schoolname": "Eagle Gate College", "schooltype": "Other Institution", "campustype": "Branch", "address": "915 N 400 W", "city": "LAYTON", "zip": "84041", "phonenumber": "877594495", "website": "www.eaglegatecollege.edu", "county_fips": "011" }, "geometry": { "type": "Point", "coordinates": [ -111.973857905300548, 41.073382219542808 ] } },
{ "type": "Feature", "properties": { "xid": 80, "schoolname": "Eagle Gate College", "schooltype": "Other Institution", "campustype": "Branch", "address": "5588 S GREEN ST", "city": "MURRAY", "zip": "84123", "phonenumber": "877594495", "website": "www.eaglegatecollege.edu", "county_fips": "035" }, "geometry": { "type": "Point", "coordinates": [ -111.903619403600558, 40.64996053838378 ] } },
{ "type": "Feature", "properties": { "xid": 81, "schoolname": "Provo College", "schooltype": "Other Institution", "campustype": "Branch", "address": "1450 W 820 N", "city": "PROVO", "zip": "84601", "phonenumber": "8776604623", "website": "www.provocollege.edu", "county_fips": "049" }, "geometry": { "type": "Point", "coordinates": [ -111.684351438081762, 40.24526985671902 ] } },
{ "type": "Feature", "properties": { "xid": 82, "schoolname": "Neumont College of Computer Science", "schooltype": "Other Institution", "campustype": "Primary", "address": "143 S MAIN ST", "city": "SALT LAKE CITY", "zip": "84111", "phonenumber": "8886386668", "website": "www.neumont.edu", "county_fips": "035" }, "geometry": { "type": "Point", "coordinates": [ -111.890777153298444, 40.766093389119426 ] } }
]
}
